{"type": "FeatureCollection", "features": [ {"type": "Feature", "properties": {"norad_id": 30716, "name": "FENGYUN 1C DEB", "group": "fengyun-1c-debris", "lat": -47.37763510030921, "lon": -4.990969143222711, "alt_km": 650.1530121679652, "timestamp": "2025-12-26T07:29:18.733952+00:00", "meta": {"OBJECT_NAME": "FENGYUN 1C DEB", "OBJECT_ID": "1999-025ASA", "EPOCH": "2025-12-25T00:18:46.259424", "MEAN_MOTION": 14.80011476, "ECCENTRICITY": 0.00206834, "INCLINATION": 98.8714, "RA_OF_ASC_NODE": 183.3469, "ARG_OF_PERICENTER": 43.1614, "MEAN_ANOMALY": 107.7886, "EPHEMERIS_TYPE": 0, "CLASSIFICATION_TYPE": "U", "NORAD_CAT_ID": 30716, "ELEMENT_SET_NO": 999, "REV_AT_EPOCH": 98005, "BSTAR": 0.003973683, "MEAN_MOTION_DOT": 0.0003024, "MEAN_MOTION_DDOT": 0}, "tle": {"line1": "1 30716U 99025ASA 25359.01303541  .00030240  00000+0  39737-2 0  9992", "line2": "2 30716  98.8714 183.3469 0020683  43.1614 107.7886 14.80011476980059"}}, "geometry": {"type": "Point", "coordinates": [-4.990969143222711, -47.37763510030921]}}, {"type": "Feature", "properties": {"norad_id": 30717, "name": "FENGYUN 1C DEB", "group": "fengyun-1c-debris", "lat": 58.77318433751194, "lon": 56.151088477195046, "alt_km": 850.5803373012532, "timestamp": "2025-12-26T07:29:18.733962+00:00", "meta": {"OBJECT_NAME": "FENGYUN 1C DEB", "OBJECT_ID": "1999-025ASB", "EPOCH": "2025-12-24T04:29:37.157568", "MEAN_MOTION": 14.20604613, "ECCENTRICITY": 0.00491208, "INCLINATION": 99.0161, "RA_OF_ASC_NODE": 69.1672, "ARG_OF_PERICENTER": 225.2588, "MEAN_ANOMALY": 134.4586, "EPHEMERIS_TYPE": 0, "CLASSIFICATION_TYPE": "U", "NORAD_CAT_ID": 30717, "ELEMENT_SET_NO": 999, "REV_AT_EPOCH": 96699, "BSTAR": 0.0014340874, "MEAN_MOTION_DOT": 3.078e-05, "MEAN_MOTION_DDOT": 0}, "tle": {"line1": "1 30717U 99025ASB 25358.18723562  .00003078  00000+0  14341-2 0  9992", "line2": "2 30717  99.0161  69.1672 0049120 225.2588 134.4586 14.20604613966992"}}, "geometry": {"type": "Point", "coordinates": [56.151088477195046, 58.77318433751194]}}, {"type": "Feature", "properties": {"norad_id": 30718, "name": "FENGYUN 1C DEB", "group": "fengyun-1c-debris", "lat": -43.12753507107604, "lon": 89.30311845310085, "alt_km": 855.9149223484683, "timestamp": "2025-12-26T07:29:18.733973+00:00", "meta": {"OBJECT_NAME": "FENGYUN 1C DEB", "OBJECT_ID": "1999-025ASC", "EPOCH": "2025-12-23T22:22:37.269120", "MEAN_MOTION": 14.24423886, "ECCENTRICITY": 0.0057063, "INCLINATION": 98.8901, "RA_OF_ASC_NODE": 78.4653, "ARG_OF_PERICENTER": 124.9351, "MEAN_ANOMALY": 235.7206, "EPHEMERIS_TYPE": 0, "CLASSIFICATION_TYPE": "U", "NORAD_CAT_ID": 30718, "ELEMENT_SET_NO": 999, "REV_AT_EPOCH": 96933, "BSTAR": 0.0015071, "MEAN_MOTION_DOT": 3.504e-05, "MEAN_MOTION_DDOT": 0}, "tle": {"line1": "1 30718U 99025ASC 25357.93237580  .00003504  00000+0  15071-2 0  9990", "line2": "2 30718  98.8901  78.4653 0057063 124.9351 235.7206 14.24423886969332"}}, "geometry": {"type": "Point", "coordinates": [89.30311845310085, -43.12753507107604]}}, {"type": "Feature", "properties": {"norad_id": 30719, "name": "FENGYUN 1C DEB", "group": "fengyun-1c-debris", "lat": -51.0655956448794, "lon": -48.135486424480305, "alt_km": 699.1220937578782, "timestamp": "2025-12-26T07:29:18.733983+00:00", "meta": {"OBJECT_NAME": "FENGYUN 1C DEB", "OBJECT_ID": "1999-025ASD", "EPOCH": "2025-12-25T15:37:25.350240", "MEAN_MOTION": 14.59652737, "ECCENTRICITY": 0.0010392, "INCLINATION": 98.887, "RA_OF_ASC_NODE": 142.3241, "ARG_OF_PERICENTER": 159.5649, "MEAN_ANOMALY": 200.5967, "EPHEMERIS_TYPE": 0, "CLASSIFICATION_TYPE": "U", "NORAD_CAT_ID": 30719, "ELEMENT_SET_NO": 999, "REV_AT_EPOCH": 97637, "BSTAR": 0.0039033, "MEAN_MOTION_DOT": 0.00018599, "MEAN_MOTION_DDOT": 0}, "tle": {"line1": "1 30719U 99025ASD 25359.65098785  .00018599  00000+0  39033-2 0  9998", "line2": "2 30719  98.8870 142.3241 0010392 159.5649 200.5967 14.59652737976373"}}, "geometry": {"type": "Point", "coordinates": [-48.135486424480305, -51.0655956448794]}}, {"type": "Feature", "properties": {"norad_id": 30720, "name": "FENGYUN 1C DEB", "group": "fengyun-1c-debris", "lat": -26.3990795825011, "lon": -10.235082156352295, "alt_km": 797.1801248332476, "timestamp": "2025-12-26T07:29:18.733993+00:00", "meta": {"OBJECT_NAME": "FENGYUN 1C DEB", "OBJECT_ID": "1999-025ASE", "EPOCH": "2025-12-25T00:51:41.809248", "MEAN_MOTION": 14.29148234, "ECCENTRICITY": 0.00323657, "INCLINATION": 99.0359, "RA_OF_ASC_NODE": 172.9733, "ARG_OF_PERICENTER": 293.0313, "MEAN_ANOMALY": 192.1103, "EPHEMERIS_TYPE": 0, "CLASSIFICATION_TYPE": "U", "NORAD_CAT_ID": 30720, "ELEMENT_SET_NO": 999, "REV_AT_EPOCH": 97664, "BSTAR": 0.00041523035, "MEAN_MOTION_DOT": 1.012e-05, "MEAN_MOTION_DDOT": 0}, "tle": {"line1": "1 30720U 99025ASE 25359.03590057  .00001012  00000+0  41523-3 0  9991", "line2": "2 30720  99.0359 172.9733 0032365 293.0313 192.1103 14.29148234976648"}}, "geometry": {"type": "Point", "coordinates": [-10.235082156352295, -26.3990795825011]}}, {"type": "Feature", "properties": {"norad_id": 30721, "name": "FENGYUN 1C DEB", "group": "fengyun-1c-debris", "lat": 20.580474984263176, "lon": 129.2734897075404, "alt_km": 650.984411686275, "timestamp": "2025-12-26T07:29:18.734003+00:00", "meta": {"OBJECT_NAME": "FENGYUN 1C DEB", "OBJECT_ID": "1999-025ASF", "EPOCH": "2025-12-25T22:10:18.173280", "MEAN_MOTION": 14.72392215, "ECCENTRICITY": 0.0028528, "INCLINATION": 98.7096, "RA_OF_ASC_NODE": 132.1576, "ARG_OF_PERICENTER": 298.7932, "MEAN_ANOMALY": 185.3258, "EPHEMERIS_TYPE": 0, "CLASSIFICATION_TYPE": "U", "NORAD_CAT_ID": 30721, "ELEMENT_SET_NO": 999, "REV_AT_EPOCH": 98036, "BSTAR": 0.0032551091, "MEAN_MOTION_DOT": 0.00020749, "MEAN_MOTION_DDOT": 0}, "tle": {"line1": "1 30721U 99025ASF 25359.92382145  .00020749  00000+0  32551-2 0  9995", "line2": "2 30721  98.7096 132.1576 0028528 298.7932 185.3258 14.72392215980368"}}, "geometry": {"type": "Point", "coordinates": [129.2734897075404, 20.580474984263176]}}, {"type": "Feature", "properties": {"norad_id": 30723, "name": "FENGYUN 1C DEB", "group": "fengyun-1c-debris", "lat": -16.089084047382652, "lon": -95.76720084343815, "alt_km": 747.7658094630688, "timestamp": "2025-12-26T07:29:18.734013+00:00", "meta": {"OBJECT_NAME": "FENGYUN 1C DEB", "OBJECT_ID": "1999-025ASH", "EPOCH": "2025-12-25T22:31:59.802240", "MEAN_MOTION": 14.41513379, "ECCENTRICITY": 0.00164743, "INCLINATION": 98.8426, "RA_OF_ASC_NODE": 86.4202, "ARG_OF_PERICENTER": 224.0373, "MEAN_ANOMALY": 196.9549, "EPHEMERIS_TYPE": 0, "CLASSIFICATION_TYPE": "U", "NORAD_CAT_ID": 30723, "ELEMENT_SET_NO": 999, "REV_AT_EPOCH": 97561, "BSTAR": 0.0021570391, "MEAN_MOTION_DOT": 6.977e-05, "MEAN_MOTION_DDOT": 0}, "tle": {"line1": "1 30723U 99025ASH 25359.93888660  .00006977  00000+0  21570-2 0  9997", "line2": "2 30723  98.8426  86.4202 0016474 224.0373 196.9549 14.41513379975618"}}, "geometry": {"type": "Point", "coordinates": [-95.76720084343815, -16.089084047382652]}}, {"type": "Feature", "properties": {"norad_id": 30724, "name": "FENGYUN 1C DEB", "group": "fengyun-1c-debris", "lat": -72.03812384681696, "lon": -24.313794597296976, "alt_km": 720.2377572917985, "timestamp": "2025-12-26T07:29:18.734023+00:00", "meta": {"OBJECT_NAME": "FENGYUN 1C DEB", "OBJECT_ID": "1999-025ASJ", "EPOCH": "2025-12-24T06:41:34.514880", "MEAN_MOTION": 14.37077528, "ECCENTRICITY": 0.00931299, "INCLINATION": 99.3156, "RA_OF_ASC_NODE": 183.9059, "ARG_OF_PERICENTER": 226.1302, "MEAN_ANOMALY": 315.2443, "EPHEMERIS_TYPE": 0, "CLASSIFICATION_TYPE": "U", "NORAD_CAT_ID": 30724, "ELEMENT_SET_NO": 999, "REV_AT_EPOCH": 98618, "BSTAR": 0.00042213285, "MEAN_MOTION_DOT": 1.264e-05, "MEAN_MOTION_DDOT": 0}, "tle": {"line1": "1 30724U 99025ASJ 25358.27887170  .00001264  00000+0  42213-3 0  9991", "line2": "2 30724  99.3156 183.9059 0093129 226.1302 315.2443 14.37077528986184"}}, "geometry": {"type": "Point", "coordinates": [-24.313794597296976, -72.03812384681696]}}, {"type": "Feature", "properties": {"norad_id": 30725, "name": "FENGYUN 1C DEB", "group": "fengyun-1c-debris", "lat": 68.85084101380902, "lon": -86.51580057910465, "alt_km": 860.4920323330052, "timestamp": "2025-12-26T07:29:18.734034+00:00", "meta": {"OBJECT_NAME": "FENGYUN 1C DEB", "OBJECT_ID": "1999-025ASK", "EPOCH": "2025-12-25T17:59:10.605120", "MEAN_MOTION": 14.16130201, "ECCENTRICITY": 0.00867141, "INCLINATION": 99.0064, "RA_OF_ASC_NODE": 68.7123, "ARG_OF_PERICENTER": 352.9789, "MEAN_ANOMALY": 128.7679, "EPHEMERIS_TYPE": 0, "CLASSIFICATION_TYPE": "U", "NORAD_CAT_ID": 30725, "ELEMENT_SET_NO": 999, "REV_AT_EPOCH": 96532, "BSTAR": 0.0011781361, "MEAN_MOTION_DOT": 2.37e-05, "MEAN_MOTION_DDOT": 0}, "tle": {"line1": "1 30725U 99025ASK 25359.74942830  .00002370  00000+0  11781-2 0  9994", "line2": "2 30725  99.0064  68.7123 0086714 352.9789 128.7679 14.16130201965327"}}, "geometry": {"type": "Point", "coordinates": [-86.51580057910465, 68.85084101380902]}}, {"type": "Feature", "properties": {"norad_id": 30726, "name": "FENGYUN 1C DEB", "group": "fengyun-1c-debris", "lat": 9.320537289108792, "lon": -176.0164854890986, "alt_km": 809.1318118246036, "timestamp": "2025-12-26T07:29:18.734044+00:00", "meta": {"OBJECT_NAME": "FENGYUN 1C DEB", "OBJECT_ID": "1999-025ASL", "EPOCH": "2025-12-22T12:58:30.564192", "MEAN_MOTION": 14.09336683, "ECCENTRICITY": 0.00783825, "INCLINATION": 99.2678, "RA_OF_ASC_NODE": 358.5691, "ARG_OF_PERICENTER": 198.8017, "MEAN_ANOMALY": 287.7405, "EPHEMERIS_TYPE": 0, "CLASSIFICATION_TYPE": "U", "NORAD_CAT_ID": 30726, "ELEMENT_SET_NO": 999, "REV_AT_EPOCH": 96121, "BSTAR": 0.0010169439, "MEAN_MOTION_DOT": 1.776e-05, "MEAN_MOTION_DDOT": 0}, "tle": {"line1": "1 30726U 99025ASL 25356.54063153  .00001776  00000+0  10169-2 0  9990", "line2": "2 30726  99.2678 358.5691 0078382 198.8017 287.7405 14.09336683961215"}}, "geometry": {"type": "Point", "coordinates": [-176.0164854890986, 9.320537289108792]}}]}